[{"OBJECT_NAME":"STARLINK-3836","OBJECT_ID":"2022-051AT","EPOCH":"2026-03-09T11:09:28.167840","MEAN_MOTION":15.08847334,"ECCENTRICITY":0.00013357,"INCLINATION":53.2177,"RA_OF_ASC_NODE":135.1276,"ARG_OF_PERICENTER":88.8035,"MEAN_ANOMALY":271.311,"EPHEMERIS_TYPE":0,"CLASSIFICATION_TYPE":"U","NORAD_CAT_ID":52577,"ELEMENT_SET_NO":999,"REV_AT_EPOCH":21134,"BSTAR":0.00016827616,"MEAN_MOTION_DOT":2.392e-5,"MEAN_MOTION_DDOT":0},{"OBJECT_NAME":"FENGYUN 1C DEB","OBJECT_ID":"1999-025CDM","EPOCH":"2026-03-09T06:24:55.905408","MEAN_MOTION":15.0430028,"ECCENTRICITY":0.00202824,"INCLINATION":99.0326,"RA_OF_ASC_NODE":346.4521,"ARG_OF_PERICENTER":26.5298,"MEAN_ANOMALY":133.8427,"EPHEMERIS_TYPE":0,"CLASSIFICATION_TYPE":"U","NORAD_CAT_ID":31714,"ELEMENT_SET_NO":999,"REV_AT_EPOCH":97342,"BSTAR":0.0098433176,"MEAN_MOTION_DOT":0.00140271,"MEAN_MOTION_DDOT":0}]
